1 40129U 14050B   18100.32033607 -.00000086  00000-0  00000-0 0  9995
2 40129  50.5008  32.3160 1646572  74.3818 303.0822  1.85519254 25019
1 40129U 14050B   18100.85934187 -.00000085  00000-0  00000-0 0  9995
2 40129  50.5010  32.2945 1646614  74.3997 303.0655  1.85519250 25028
1 40129U 14050B   18101.39834776 -.00000083  00000-0  00000+0 0  9995
2 40129  50.5012  32.2730 1646682  74.4172 303.0491  1.85519237 25004
1 40129U 14050B   18101.93735431 -.00000082  00000-0  00000-0 0  9993
2 40129  50.5014  32.2514 1646745  74.4350 303.0325  1.85519193 25045
1 40129U 14050B   18102.47636003 -.00000081  00000-0  00000-0 0  9997
2 40129  50.5016  32.2299 1646792  74.4528 303.0156  1.85519186 25051
1 40129U 14050B   18103.01536687 -.00000080  00000-0  00000-0 0  9994
2 40129  50.5018  32.2084 1646852  74.4707 302.9989  1.85519149 25063
1 40129U 14050B   18103.55437270 -.00000079  00000-0  00000+0 0  9998
2 40129  50.5020  32.1868 1646914  74.4884 302.9828  1.85519152 25044
1 40129U 14050B   18104.09337990 -.00000077  00000-0  00000-0 0  9995
2 40129  50.5022  32.1653 1646976  74.5063 302.9667  1.85519136 25083
1 40129U 14050B   18104.63238919 -.00000076  00000-0  00000-0 0  9995
2 40129  50.5023  32.1438 1647035  74.5242 302.9512  1.85519071 25099
1 40129U 14050B   18105.17139776 -.00000075  00000-0  00000-0 0  9995
2 40129  50.5025  32.1222 1647095  74.5422 302.9361  1.85519053 25102
1 40129U 14050B   18105.71040725 -.00000074  00000-0  00000+0 0  9998
2 40129  50.5027  32.1007 1647142  74.5602 302.9214  1.85519045 25083
1 40129U 14050B   18106.24941856 -.00000073  00000-0  00000-0 0  9992
2 40129  50.5029  32.0792 1647195  74.5782 302.9074  1.85519001 25123
1 40129U 14050B   18107.32744108 -.00000072  00000-0  00000-0 0  9992
2 40129  50.5033  32.0361 1647315  74.6140 302.8812  1.85518988 25147
1 40129U 14050B   18107.32744169 -.00000072  00000-0  00000-0 0  9999
2 40129  50.5033  32.0361 1647308  74.6141 302.8811  1.85518976 25146
1 40129U 14050B   18107.86645450 -.00000072  00000-0  00000+0 0  9990
2 40129  50.5035  32.0145 1647371  74.6320 302.8686  1.85518949 25125
1 40129U 14050B   18108.94448155 -.00000073  00000-0  00000-0 0  9995
2 40129  50.5038  31.9714 1647477  74.6678 302.8438  1.85518891 25177
1 40129U 14050B   18109.48349449 -.00000074  00000-0  00000-0 0  9992
2 40129  50.5040  31.9499 1647539  74.6858 302.8312  1.85518875 25183
1 40129U 14050B   18110.02250664 -.00000075  00000-0  00000+0 0  9994
2 40129  50.5042  31.9283 1647591  74.7037 302.8182  1.85518874 25166
1 40129U 14050B   18110.56151629 -.00000077  00000-0  00000-0 0  9997
2 40129  50.5044  31.9067 1647643  74.7217 302.8046  1.85518918 25209
1 40129U 14050B   18111.10052579 -.00000080  00000-0  00000-0 0  9996
2 40129  50.5046  31.8851 1647700  74.7397 302.7903  1.85518948 25219
1 40129U 14050B   18111.63953992 -.00000082  00000-0  00000-0 0  9995
2 40129  50.5048  31.8636 1647755  74.7577 302.7753  1.85518791 25222
1 40129U 14050B   18112.17854802 -.00000086  00000-0  00000+0 0  9998
2 40129  50.5050  31.8420 1647810  74.7758 302.7595  1.85518798 25208
1 40129U 14050B   18113.25655934 -.00000093  00000-0  00000-0 0  9992
2 40129  50.5054  31.7989 1647926  74.8120 302.7258  1.85518878 25253
1 40129U 14050B   18113.79556536 -.00000097  00000-0  00000-0 0  9993
2 40129  50.5055  31.7774 1647979  74.8300 302.7083  1.85518869 25261
1 40129U 14050B   18113.79556569 -.00000097  00000-0  00000-0 0  9999
2 40129  50.5055  31.7774 1647991  74.8304 302.7081  1.85518864 25262
1 40129U 14050B   18114.33457144 -.00000101  00000-0  00000+0 0  9994
2 40129  50.5057  31.7558 1648043  74.8484 302.6903  1.85518860 25248
1 40129U 14050B   18115.41258159 -.00000109  00000-0  00000-0 0  9998
2 40129  50.5061  31.7127 1648153  74.8845 302.6548  1.85518910 25294
1 40129U 14050B   18115.95158958 -.00000112  00000-0  00000-0 0  9997
2 40129  50.5063  31.6911 1648207  74.9025 302.6376  1.85518866 25308
1 40129U 14050B   18117.02960320 -.00000117  00000-0  00000+0 0  9995
2 40129  50.5067  31.6480 1648313  74.9383 302.6050  1.85518931 25298
1 40129U 14050B   18118.10762277 -.00000119  00000-0  00000-0 0  9999
2 40129  50.5070  31.6049 1648417  74.9744 302.5750  1.85518948 25349
1 40129U 14050B   18118.64663233 -.00000120  00000-0  00000-0 0  9992
2 40129  50.5072  31.5834 1648491  74.9931 302.5607  1.85519043 25351
1 40129U 14050B   18119.18564507 -.00000120  00000-0  00000+0 0  9995
2 40129  50.5074  31.5618 1648542  75.0110 302.5476  1.85519028 25336
1 40129U 14050B   18119.18564530 -.00000120  00000-0  00000-0 0  9992
2 40129  50.5074  31.5618 1648550  75.0114 302.5473  1.85519040 25363
1 40129U 14050B   18119.72465962 -.00000119  00000-0  00000-0 0  9999
2 40129  50.5076  31.5403 1648594  75.0292 302.5348  1.85519006 25376
1 40129U 14050B   18120.26367213 -.00000118  00000-0  00000-0 0  9999
2 40129  50.5078  31.5187 1648651  75.0473 302.5226  1.85519063 25381
1 40129U 14050B   18121.34170106 -.00000116  00000-0  00000+0 0  9999
2 40129  50.5081  31.4757 1648756  75.0834 302.4990  1.85519084 25373
1 40129U 14050B   18121.34170178 -.00000116  00000-0  00000-0 0  9999
2 40129  50.5082  31.4757 1648761  75.0837 302.4988  1.85519073 25402
1 40129U 14050B   18121.88071602 -.00000114  00000-0  00000-0 0  9998
2 40129  50.5083  31.4541 1648811  75.1016 302.4873  1.85519093 25416
1 40129U 14050B   18122.41972968 -.00000113  00000-0  00000-0 0  9992
2 40129  50.5085  31.4326 1648860  75.1196 302.4756  1.85519128 25422
1 40129U 14050B   18122.95874335 -.00000111  00000-0  00000-0 0  9998
2 40129  50.5087  31.4110 1648902  75.1371 302.4640  1.85519125 25437
1 40129U 14050B   18123.49775737 -.00000110  00000-0  00000+0 0  9992
2 40129  50.5089  31.3895 1648964  75.1555 302.4516  1.85519143 25410
1 40129U 14050B   18124.03677032 -.00000108  00000-0  00000-0 0  9990
2 40129  50.5091  31.3679 1649018  75.1736 302.4390  1.85519153 25450
1 40129U 14050B   18124.57578104 -.00000107  00000-0  00000-0 0  9998
2 40129  50.5093  31.3464 1649070  75.1915 302.4260  1.85519203 25464
1 40129U 14050B   18125.65380275 -.00000104  00000-0  00000-0 0  9995
2 40129  50.5096  31.3032 1649179  75.2277 302.3985  1.85519227 25481
1 40129U 14050B   18125.65380495 -.00000104  00000-0  00000+0 0  9998
2 40129  50.5096  31.3032 1649188  75.2279 302.3984  1.85519163 25458
1 40129U 14050B   18126.19281388 -.00000103  00000-0  00000-0 0  9999
2 40129  50.5098  31.2817 1649237  75.2459 302.3840  1.85519194 25494
1 40129U 14050B   18127.27083246 -.00000100  00000-0  00000-0 0  9999
2 40129  50.5102  31.2385 1649336  75.2820 302.3537  1.85519165 25516
1 40129U 14050B   18127.27083397 -.00000100  00000-0  00000-0 0  9996
2 40129  50.5102  31.2385 1649337  75.2820 302.3537  1.85519121 25519
1 40129U 14050B   18127.80984068 -.00000099  00000-0  00000+0 0  9996
2 40129  50.5104  31.2170 1649386  75.3000 302.3381  1.85519157 25491
1 40129U 14050B   18128.34884857 -.00000098  00000-0  00000-0 0  9991
2 40129  50.5106  31.1954 1649434  75.3180 302.3223  1.85519147 25534
1 40129U 14050B   18128.88785701 -.00000096  00000-0  00000-0 0  9996
2 40129  50.5107  31.1738 1649468  75.3358 302.3063  1.85519103 25544
1 40129U 14050B   18129.42686550 -.00000095  00000-0  00000-0 0  9998
2 40129  50.5109  31.1523 1649533  75.3540 302.2901  1.85519068 25555
1 40129U 14050B   18129.96586974 -.00000093  00000-0  00000+0 0  9993
2 40129  50.5111  31.1307 1649576  75.3720 302.2740  1.85519168 25535
1 40129U 14050B   18129.96587101 -.00000093  00000-0  00000-0 0  9997
2 40129  50.5111  31.1307 1649588  75.3722 302.2740  1.85519129 25560
1 40129U 14050B   18131.58289777 -.00000089  00000-0  00000-0 0  9991
2 40129  50.5117  31.0660 1649719  75.4265 302.2270  1.85519038 25596
1 40129U 14050B   18131.58289809 -.00000089  00000-0  00000-0 0  9997
2 40129  50.5117  31.0660 1649731  75.4267 302.2270  1.85519027 25590
1 40129U 14050B   18132.66091816 -.00000086  00000-0  00000-0 0  9993
2 40129  50.5121  31.0229 1649811  75.4629 302.1978  1.85518998 25610
1 40129U 14050B   18132.66091859 -.00000086  00000-0  00000+0 0  9999
2 40129  50.5121  31.0229 1649813  75.4629 302.1978  1.85518984 25583
1 40129U 14050B   18133.19992845 -.00000085  00000-0  00000-0 0  9993
2 40129  50.5123  31.0013 1649864  75.4812 302.1839  1.85519013 25621
1 40129U 14050B   18134.81696681 -.00000082  00000-0  00000-0 0  9999
2 40129  50.5128  30.9366 1649996  75.5356 302.1455  1.85518963 25655
1 40129U 14050B   18134.81696736 -.00000082  00000-0  00000+0 0  9999
2 40129  50.5128  30.9366 1649993  75.5355 302.1456  1.85518947 25621
1 40129U 14050B   18134.81696770 -.00000082  00000-0  00000-0 0  9998
2 40129  50.5128  30.9366 1649986  75.5354 302.1456  1.85518939 25656
1 40129U 14050B   18135.89499459 -.00000082  00000-0  00000-0 0  9992
2 40129  50.5132  30.8935 1650081  75.5718 302.1215  1.85518940 25671
1 40129U 14050B   18136.43400845 -.00000082  00000-0  00000-0 0  9994
2 40129  50.5134  30.8719 1650117  75.5898 302.1094  1.85518934 25681
1 40129U 14050B   18136.97302251 -.00000083  00000-0  00000+0 0  9995
2 40129  50.5136  30.8503 1650167  75.6081 302.0969  1.85518907 25662
1 40129U 14050B   18138.59005653 -.00000089  00000-0  00000-0 0  9998
2 40129  50.5141  30.7855 1650296  75.6627 302.0563  1.85518937 25726
1 40129U 14050B   18139.12906615 -.00000092  00000-0  00000+0 0  9999
2 40129  50.5143  30.7639 1650341  75.6811 302.0411  1.85518935 25702
1 40129U 14050B   18139.66807915 -.00000095  00000-0  00000-0 0  9995
2 40129  50.5145  30.7424 1650367  75.6987 302.0257  1.85518781 25749
1 40129U 14050B   18140.20708178 -.00000099  00000-0  00000-0 0  9992
2 40129  50.5147  30.7208 1650426  75.7176 302.0088  1.85518948 25756
1 40129U 14050B   18140.20708224 -.00000099  00000-0  00000-0 0  9994
2 40129  50.5147  30.7208 1650432  75.7179 302.0086  1.85518934 25759
